SL-16 R/B               
1 28353U 04021B   16064.19694909 -.00000315  00000-0 -14012-3 0  9994
2 28353  71.0030 344.0896 0006236 215.9298 144.1406 14.14169827605713
CZ-2C R/B               
1 28480U 04046B   16064.20890473  .00000071  00000-0  42202-4 0  9998
2 28480  98.1687 185.1264 0142460 171.2638 250.6552 14.25574964587276
ARIANE 5 R/B            
1 28499U 04049H   16064.22641926  .00000170  00000-0  28873-4 0  9998
2 28499  98.1194 137.4453 0091453 292.4870 130.9174 14.79644540604499
CZ-2D R/B               
1 28738U 05024B   16064.21280539  .00001198  00000-0  76978-4 0  9996
2 28738  97.5557 102.7944 0012615 173.0240 187.1167 15.10292771584853
SUZAKU (ASTRO-EII)      
1 28773U 05025A   16063.56062374  .00002666  00000-0  13717-3 0  9990
2 28773  31.3829 105.3404 0004881 306.8480  53.1719 15.14382157585913
ALOS (DAICHI)           
1 28931U 06002A   16063.82987311  .00000198  00000-0  48164-4 0  9991
2 28931  97.8980 107.3304 0001780  58.9561 301.1815 14.62134569538729
H-2A R/B                
1 28932U 06002B   16063.34477978  .00001232  00000-0  12219-3 0  9993
2 28932  98.2252 321.2834 0092319  53.9740  55.4814 14.90702762547640
AKARI (ASTRO-F)         
1 28939U 06005A   16064.12606802  .00006406  00000-0  21897-3 0  9990
2 28939  98.2242 210.2747 0117998  12.6395 347.7753 15.24210184541390
RESURS-DK 1             
1 29228U 06021A   16064.56093481  .00000572  00000-0  51257-4 0  9993
2 29228  69.9362 212.6303 0006141 310.8746 176.3310 15.01805139537580
GENESIS 1               
1 29252U 06029A   16063.34441918  .00002151  00000-0  12098-3 0  9999
2 29252  64.5071  22.1587 0039410 238.2365 280.5144 15.15678515530440
CZ-4B R/B               
1 29507U 06046C   16063.53900207  .00001235  00000-0  10396-3 0  9994
2 29507  97.7830  64.8323 0038118  52.2775 308.1893 14.99566256510498
CZ-2C R/B               
1 31114U 07010B   16063.74344542  .00000031  00000-0  33562-4 0  9994
2 31114  98.4155 344.0365 0060476 139.9925 220.5731 14.19191882460790
COSMO-SKYMED 1          
1 31598U 07023A   16064.57183117  .00000097  00000-0  18735-4 0  9992
2 31598  97.8787 249.6229 0001347  83.2826 276.8535 14.82154852472887
GENESIS 2               
1 31789U 07028A   16064.31888915  .00002791  00000-0  15480-3 0  9995
2 31789  64.5056  55.2878 0052647 279.9562  79.5619 15.14937345477697
COSMOS 2428             
1 31792U 07029A   16064.36201951  .00000137  00000-0  10000-3 0  9999
2 31792  70.9534 318.0457 0010222 271.1370 207.1673 14.12423456447731
SL-16 R/B               
1 31793U 07029B   16063.84323898  .00000272  00000-0  16712-3 0  9993
2 31793  70.9751 297.1042 0001764 253.6223 178.8582 14.14352255448210
KORONAS-FOTON           
1 33504U 09003A   16064.21547906  .00001133  00000-0  60315-4 0  9995
2 33504  82.4460 339.7599 0018418 296.0066  63.9268 15.14099934390345
TIANGONG 1              
1 37820U 11053A   16064.49938657  .00013740  00000-0  17157-3 0  9997
2 37820  42.7628 152.0536 0010102  42.0804 127.6580 15.59652718254217
CUSAT 2 & FALCON 9 R/B  
1 39271U 13055G   16064.23247262  .00015378  00000-0  41443-3 0  9994
2 39271  80.9719 131.4333 0667885 144.8000 219.9268 14.28958579125297
